{"type": "FeatureCollection", "features": [ {"type": "Feature", "properties": {"norad_id": 38552, "name": "METEOSAT-10 (MSG-3)", "group": "weather", "lat": -0.618806973687702, "lon": -110.23931767964719, "alt_km": 35784.32493128288, "timestamp": "2025-12-17T10:52:53.991566+00:00", "meta": {"OBJECT_NAME": "METEOSAT-10 (MSG-3)", "OBJECT_ID": "2012-035B", "EPOCH": "2025-12-16T08:13:14.871072", "MEAN_MOTION": 1.00275991, "ECCENTRICITY": 7.087e-05, "INCLINATION": 4.237, "RA_OF_ASC_NODE": 61.7152, "ARG_OF_PERICENTER": 266.3674, "MEAN_ANOMALY": 240.6885, "EPHEMERIS_TYPE": 0, "CLASSIFICATION_TYPE": "U", "NORAD_CAT_ID": 38552, "ELEMENT_SET_NO": 999, "REV_AT_EPOCH": 4902, "BSTAR": 0, "MEAN_MOTION_DOT": 1.5e-07, "MEAN_MOTION_DDOT": 0}, "tle": {"line1": "1 38552U 12035B   25350.34253323  .00000015  00000+0  00000+0 0  9998", "line2": "2 38552   4.2370  61.7152 0000708 266.3674 240.6885  1.00275991 49024"}}, "geometry": {"type": "Point", "coordinates": [-110.23931767964719, -0.618806973687702]}}, {"type": "Feature", "properties": {"norad_id": 38771, "name": "METOP-B", "group": "weather", "lat": 72.0974531128036, "lon": 13.11210503929756, "alt_km": 812.4980091729722, "timestamp": "2025-12-17T10:52:53.991578+00:00", "meta": {"OBJECT_NAME": "METOP-B", "OBJECT_ID": "2012-049A", "EPOCH": "2025-12-16T22:42:27.086112", "MEAN_MOTION": 14.21409922, "ECCENTRICITY": 0.00030609, "INCLINATION": 98.6795, "RA_OF_ASC_NODE": 40.8336, "ARG_OF_PERICENTER": 135.162, "MEAN_ANOMALY": 224.9805, "EPHEMERIS_TYPE": 0, "CLASSIFICATION_TYPE": "U", "NORAD_CAT_ID": 38771, "ELEMENT_SET_NO": 999, "REV_AT_EPOCH": 68737, "BSTAR": 7.8191027e-05, "MEAN_MOTION_DOT": 1.27e-06, "MEAN_MOTION_DDOT": 0}, "tle": {"line1": "1 38771U 12049A   25350.94614683  .00000127  00000+0  78191-4 0  9997", "line2": "2 38771  98.6795  40.8336 0003060 135.1620 224.9805 14.21409922687378"}}, "geometry": {"type": "Point", "coordinates": [13.11210503929756, 72.0974531128036]}}, {"type": "Feature", "properties": {"norad_id": 39216, "name": "INSAT-3D", "group": "weather", "lat": -1.3146115785683414, "lon": 19.048095085379614, "alt_km": 35790.57605695637, "timestamp": "2025-12-17T10:52:53.991591+00:00", "meta": {"OBJECT_NAME": "INSAT-3D", "OBJECT_ID": "2013-038B", "EPOCH": "2025-12-16T17:23:45.360384", "MEAN_MOTION": 1.00268278, "ECCENTRICITY": 0.00012376, "INCLINATION": 1.4547, "RA_OF_ASC_NODE": 84.9539, "ARG_OF_PERICENTER": 165.8671, "MEAN_ANOMALY": 225.2241, "EPHEMERIS_TYPE": 0, "CLASSIFICATION_TYPE": "U", "NORAD_CAT_ID": 39216, "ELEMENT_SET_NO": 999, "REV_AT_EPOCH": 4525, "BSTAR": 0, "MEAN_MOTION_DOT": -3.16e-06, "MEAN_MOTION_DDOT": 0}, "tle": {"line1": "1 39216U 13038B   25350.72483056 -.00000316  00000+0  00000+0 0  9995", "line2": "2 39216   1.4547  84.9539 0001237 165.8671 225.2241  1.00268278 45257"}}, "geometry": {"type": "Point", "coordinates": [19.048095085379614, -1.3146115785683414]}}, {"type": "Feature", "properties": {"norad_id": 39260, "name": "FENGYUN 3C", "group": "weather", "lat": -44.051936655954506, "lon": 140.60746565505022, "alt_km": 838.8385491471281, "timestamp": "2025-12-17T10:52:53.991602+00:00", "meta": {"OBJECT_NAME": "FENGYUN 3C", "OBJECT_ID": "2013-052A", "EPOCH": "2025-12-16T23:38:49.642656", "MEAN_MOTION": 14.15697677, "ECCENTRICITY": 0.00145085, "INCLINATION": 98.4766, "RA_OF_ASC_NODE": 328.4574, "ARG_OF_PERICENTER": 183.5755, "MEAN_ANOMALY": 176.5318, "EPHEMERIS_TYPE": 0, "CLASSIFICATION_TYPE": "U", "NORAD_CAT_ID": 39260, "ELEMENT_SET_NO": 999, "REV_AT_EPOCH": 63278, "BSTAR": 7.9242997e-05, "MEAN_MOTION_DOT": 1.14e-06, "MEAN_MOTION_DDOT": 0}, "tle": {"line1": "1 39260U 13052A   25350.98529679  .00000114  00000+0  79243-4 0  9995", "line2": "2 39260  98.4766 328.4574 0014508 183.5755 176.5318 14.15697677632787"}}, "geometry": {"type": "Point", "coordinates": [140.60746565505022, -44.051936655954506]}}, {"type": "Feature", "properties": {"norad_id": 40069, "name": "METEOR-M 2", "group": "weather", "lat": -56.78038526928769, "lon": -17.958222342164188, "alt_km": 828.8176460537443, "timestamp": "2025-12-17T10:52:53.991613+00:00", "meta": {"OBJECT_NAME": "METEOR-M 2", "OBJECT_ID": "2014-037A", "EPOCH": "2025-12-16T23:19:37.285248", "MEAN_MOTION": 14.21388653, "ECCENTRICITY": 0.00051684, "INCLINATION": 98.4899, "RA_OF_ASC_NODE": 328.3945, "ARG_OF_PERICENTER": 196.3046, "MEAN_ANOMALY": 163.7966, "EPHEMERIS_TYPE": 0, "CLASSIFICATION_TYPE": "U", "NORAD_CAT_ID": 40069, "ELEMENT_SET_NO": 999, "REV_AT_EPOCH": 59343, "BSTAR": 8.5827475e-05, "MEAN_MOTION_DOT": 1.46e-06, "MEAN_MOTION_DDOT": 0}, "tle": {"line1": "1 40069U 14037A   25350.97195932  .00000146  00000+0  85827-4 0  9998", "line2": "2 40069  98.4899 328.3945 0005168 196.3046 163.7966 14.21388653593434"}}, "geometry": {"type": "Point", "coordinates": [-17.958222342164188, -56.78038526928769]}}, {"type": "Feature", "properties": {"norad_id": 40267, "name": "HIMAWARI-8", "group": "weather", "lat": -0.004785109605541207, "lon": 30.222052419828945, "alt_km": 35786.710647129854, "timestamp": "2025-12-17T10:52:53.991631+00:00", "meta": {"OBJECT_NAME": "HIMAWARI-8", "OBJECT_ID": "2014-060A", "EPOCH": "2025-12-16T16:44:38.561856", "MEAN_MOTION": 1.00272573, "ECCENTRICITY": 8.727e-05, "INCLINATION": 0.0192, "RA_OF_ASC_NODE": 161.0568, "ARG_OF_PERICENTER": 127.3774, "MEAN_ANOMALY": 188.979, "EPHEMERIS_TYPE": 0, "CLASSIFICATION_TYPE": "U", "NORAD_CAT_ID": 40267, "ELEMENT_SET_NO": 999, "REV_AT_EPOCH": 4093, "BSTAR": 0, "MEAN_MOTION_DOT": -2.51e-06, "MEAN_MOTION_DDOT": 0}, "tle": {"line1": "1 40267U 14060A   25350.69766854 -.00000251  00000+0  00000+0 0  9993", "line2": "2 40267   0.0192 161.0568 0000872 127.3774 188.9790  1.00272573 40933"}}, "geometry": {"type": "Point", "coordinates": [30.222052419828945, -0.004785109605541207]}}, {"type": "Feature", "properties": {"norad_id": 40367, "name": "FENGYUN 2G", "group": "weather", "lat": -5.169695667927991, "lon": -11.016230344954986, "alt_km": 35785.10742659041, "timestamp": "2025-12-17T10:52:53.991644+00:00", "meta": {"OBJECT_NAME": "FENGYUN 2G", "OBJECT_ID": "2014-090A", "EPOCH": "2025-12-16T18:57:58.838976", "MEAN_MOTION": 1.00262837, "ECCENTRICITY": 0.00028831, "INCLINATION": 5.1785, "RA_OF_ASC_NODE": 75.0518, "ARG_OF_PERICENTER": 204.4015, "MEAN_ANOMALY": 190.125, "EPHEMERIS_TYPE": 0, "CLASSIFICATION_TYPE": "U", "NORAD_CAT_ID": 40367, "ELEMENT_SET_NO": 999, "REV_AT_EPOCH": 4017, "BSTAR": 0, "MEAN_MOTION_DOT": -2.79e-06, "MEAN_MOTION_DDOT": 0}, "tle": {"line1": "1 40367U 14090A   25350.79026434 -.00000279  00000+0  00000+0 0  9991", "line2": "2 40367   5.1785  75.0518 0002883 204.4015 190.1250  1.00262837 40170"}}, "geometry": {"type": "Point", "coordinates": [-11.016230344954986, -5.169695667927991]}}, {"type": "Feature", "properties": {"norad_id": 40732, "name": "METEOSAT-11 (MSG-4)", "group": "weather", "lat": -0.35082784565671826, "lon": -101.22407445277317, "alt_km": 35784.70884717756, "timestamp": "2025-12-17T10:52:53.991657+00:00", "meta": {"OBJECT_NAME": "METEOSAT-11 (MSG-4)", "OBJECT_ID": "2015-034A", "EPOCH": "2025-12-16T18:32:16.300896", "MEAN_MOTION": 1.00268751, "ECCENTRICITY": 8.953e-05, "INCLINATION": 2.7459, "RA_OF_ASC_NODE": 71.991, "ARG_OF_PERICENTER": 132.5551, "MEAN_ANOMALY": 168.4157, "EPHEMERIS_TYPE": 0, "CLASSIFICATION_TYPE": "U", "NORAD_CAT_ID": 40732, "ELEMENT_SET_NO": 999, "REV_AT_EPOCH": 538, "BSTAR": 0, "MEAN_MOTION_DOT": 8.3e-07, "MEAN_MOTION_DDOT": 0}, "tle": {"line1": "1 40732U 15034A   25350.77241089  .00000083  00000+0  00000+0 0  9991", "line2": "2 40732   2.7459  71.9910 0000895 132.5551 168.4157  1.00268751  5384"}}, "geometry": {"type": "Point", "coordinates": [-101.22407445277317, -0.35082784565671826]}}, {"type": "Feature", "properties": {"norad_id": 41105, "name": "ELEKTRO-L 2", "group": "weather", "lat": 1.8754870179255676, "lon": -124.87039448156045, "alt_km": 35774.77122248484, "timestamp": "2025-12-17T10:52:53.991670+00:00", "meta": {"OBJECT_NAME": "ELEKTRO-L 2", "OBJECT_ID": "2015-074A", "EPOCH": "2025-12-16T01:18:12.753792", "MEAN_MOTION": 1.00272542, "ECCENTRICITY": 0.00037924, "INCLINATION": 6.234, "RA_OF_ASC_NODE": 72.7892, "ARG_OF_PERICENTER": 209.7128, "MEAN_ANOMALY": 167.5089, "EPHEMERIS_TYPE": 0, "CLASSIFICATION_TYPE": "U", "NORAD_CAT_ID": 41105, "ELEMENT_SET_NO": 999, "REV_AT_EPOCH": 3667, "BSTAR": 0, "MEAN_MOTION_DOT": -9.9e-07, "MEAN_MOTION_DDOT": 0}, "tle": {"line1": "1 41105U 15074A   25350.05431428 -.00000099  00000+0  00000+0 0  9997", "line2": "2 41105   6.2340  72.7892 0003792 209.7128 167.5089  1.00272542 36674"}}, "geometry": {"type": "Point", "coordinates": [-124.87039448156045, 1.8754870179255676]}}, {"type": "Feature", "properties": {"norad_id": 41752, "name": "INSAT-3DR", "group": "weather", "lat": -0.09248662281828145, "lon": -36.33779259576137, "alt_km": 35749.52554901297, "timestamp": "2025-12-17T10:52:53.991685+00:00", "meta": {"OBJECT_NAME": "INSAT-3DR", "OBJECT_ID": "2016-054A", "EPOCH": "2025-12-16T17:08:01.866336", "MEAN_MOTION": 1.00271563, "ECCENTRICITY": 0.00141801, "INCLINATION": 0.1018, "RA_OF_ASC_NODE": 86.686, "ARG_OF_PERICENTER": 184.5714, "MEAN_ANOMALY": 145.3416, "EPHEMERIS_TYPE": 0, "CLASSIFICATION_TYPE": "U", "NORAD_CAT_ID": 41752, "ELEMENT_SET_NO": 999, "REV_AT_EPOCH": 3398, "BSTAR": 0, "MEAN_MOTION_DOT": -5.3e-07, "MEAN_MOTION_DDOT": 0}, "tle": {"line1": "1 41752U 16054A   25350.71391049 -.00000053  00000+0  00000+0 0  9991", "line2": "2 41752   0.1018  86.6860 0014180 184.5714 145.3416  1.00271563 33981"}}, "geometry": {"type": "Point", "coordinates": [-36.33779259576137, -0.09248662281828145]}}]}